{"fetched_at":"2026-03-30T06:02:59Z","count":15439,"tles":[{"name":"STARLINK-11558 [DTC]","line1":"1 63055U 25035D   26087.75116249  .00276395  00000+0  20836-2 0  9994","line2":"2 63055  42.9996 260.0075 0001282 141.3987 218.6972 15.70874921 64117","category":"Starlink"}]}