{
  "norad_id": 63055,
  "name": "STARLINK-11558 [DTC]",
  "history": [
    {
      "epoch": "2026-03-28T18:01:40.439136Z",
      "apogee_km": 357.25861969880134,
      "perigee_km": 355.53188562921787,
      "latitude_deg": -2.779451486707402e-05,
      "longitude_deg": 163.4218585578945,
      "height_km": 356.84012716965435,
      "semi_major_axis_km": 6734.532252664009,
      "eccentricity": 0.0001282,
      "inclination_deg": 42.9996,
      "raan_deg": 260.0075,
      "arg_perigee_deg": 141.3987,
      "mean_anomaly_deg": 218.6972,
      "mean_motion_rev_day": 15.70874921
    }
  ]
}